EYESAT A (AO-27)        
1 22825U 93061C   26169.11865723  .00000076  00000+0  45857-4 0  9990
2 22825  98.6880 236.5319 0009539  97.3828 262.8439 14.30942518707131
ITAMSAT (IO-26)         
1 22826U 93061D   26169.16769500  .00000076  00000+0  45488-4 0  9992
2 22826  98.6828 236.4984 0010062  82.4093 277.8232 14.31369433707455
RADIO ROSTO (RS15)      
1 23439U 94085A   26168.91418272 -.00000050  00000+0 -20634-3 0  9998
2 23439  64.8179 302.0404 0155969   3.7415 356.4638 11.27583479295981
JAS-2 (FO-29)           
1 24278U 96046B   26169.05046237 -.00000003  00000+0  30027-4 0  9998
2 24278  98.5238  17.8043 0350914  94.1986 269.9331 13.53274469473283
FORTE                   
1 24920U 97047A   26169.00546859  .00000115  00000+0  69690-4 0  9995
2 24920  69.9539  12.1730 0024628 276.4012  83.4305 14.27945404498800
TECHSAT 1B (GO-32)      
1 25397U 98043D   26168.97754884  .00000036  00000+0  35812-4 0  9996
2 25397  99.0067 161.7561 0001106 161.1376 198.9843 14.24428526451447
ISS (ZARYA)             
1 25544U 98067A   26169.15704105  .00009674  00000+0  18166-3 0  9997
2 25544  51.6334 295.2921 0004743 200.3344 159.7456 15.49293017571908
IMAGE                   
1 26113U 00017A   26162.34581823  .00000011  00000+0  22926-1 0  9995
2 26113  94.2241 315.2958 7436383 288.4674   8.8959  1.68665984161407
CLUSTER II-FM7 (SAMBA)  
1 26410U 00041A   26168.13893488  .00013373  00000+0  00000+0 0  9990
2 26410 149.9159  50.9864 9054007 268.1291 359.6411  0.44868040 20307
CLUSTER II-FM8 (TANGO)  
1 26464U 00045B   26166.18760269  .00011725  00000+0  00000+0 0  9995
2 26464 150.1504  51.7507 9057004 268.7261   2.8044  0.44418308 20307
ODIN                    
1 26702U 01007A   26169.11040362  .00150302  00000+0  95192-3 0  9995
2 26702  97.3824 210.1119 0006539 141.7111 218.4620 15.76090472389549
OMNI-M1                 
1 26857U 01026A   26167.20907279 -.00000001  00000+0  00000+0 0  9995
2 26857  44.8307 245.4893 0014194  53.4474 306.7446  3.92401638205538
PCSAT (NO-44)           
1 26931U 01043C   26169.20699556  .00000076  00000+0  59168-4 0  9990
2 26931  67.0505 241.6342 0006073 264.6735  95.3674 14.31956418290598
PROBA-1                 
1 26958U 01049B   26169.33145146  .00001476  00000+0  98353-4 0  9994
2 26958  97.9594 177.9042 0056487 118.0878 242.6075 15.07498041343799
SAUDISAT 1C (SO-50)     
1 27607U 02058C   26169.30164588  .00000775  00000+0  10896-3 0  9991
2 27607  64.5511 125.5368 0075196 262.2633  96.9930 14.83049007264620
CORIOLIS                
1 27640U 03001A   26168.97229685  .00000069  00000+0  53111-4 0  9993
2 27640  98.7125 175.8451 0013424 206.4111 153.6382 14.19944946214335
CUTE-1 (CO-55)          
1 27844U 03031E   26169.02064842  .00000221  00000+0  11471-3 0  9993
2 27844  98.6736 177.5689 0009609 175.5784 184.5482 14.24336174191794
CUBESAT XI-IV (CO-57)   
1 27848U 03031J   26168.93924090  .00000186  00000+0  10079-3 0  9999
2 27848  98.6765 177.2007 0009073 194.7196 165.3719 14.23621196191482
MOZHAETS 4 (RS22)       
1 27939U 03042A   26169.30172678  .00000839  00000+0  13752-3 0  9997
2 27939  98.3464 353.6914 0009925 265.8597 171.6955 14.73469081215717
